{
    "week": 294,
    "satellites": [
        {
            "Name": "BEIDOU-3 M13 (C32)",
            "Line1": "1 43622U 18072A   24331.43796254 -.00000037  00000+0  00000+0 0  9997",
            "Line2": "2 43622  56.1285  81.4745 0005103 290.7387  69.1895  1.86231136 42083",
            "SatelliteNumber": "43622",
            "Classification": "U",
            "LaunchYear": "18",
            "LaunchNumber": "072",
            "PieceOfLaunch": "A",
            "EpochYear": "24",
            "EpochDay": 331.43796254,
            "FirstDerivativeMeanMotion": -3.7e-07,
            "SecondDerivativeMeanMotion": "00000+0",
            "BSTAR": "00000+0",
            "SetNumber": "999",
            "Inclination": 56.1285,
            "RAAN": 81.4745,
            "Eccentricity": 0.0005103,
            "ArgumentOfPerigee": 290.7387,
            "MeanAnomaly": 69.1895,
            "MeanMotion": 1.86231136,
            "RevolutionNumber": "4208"
        },
        {
            "Name": "BEIDOU-3 M14 (C33)",
            "Line1": "1 43623U 18072B   24329.69257431 -.00000027  00000+0  00000+0 0  9991",
            "Line2": "2 43623  56.1291  81.5260 0002529 332.2418  27.7305  1.86231105 42048",
            "SatelliteNumber": "43623",
            "Classification": "U",
            "LaunchYear": "18",
            "LaunchNumber": "072",
            "PieceOfLaunch": "B",
            "EpochYear": "24",
            "EpochDay": 329.69257431,
            "FirstDerivativeMeanMotion": -2.7e-07,
            "SecondDerivativeMeanMotion": "00000+0",
            "BSTAR": "00000+0",
            "SetNumber": "999",
            "Inclination": 56.1291,
            "RAAN": 81.526,
            "Eccentricity": 0.0002529,
            "ArgumentOfPerigee": 332.2418,
            "MeanAnomaly": 27.7305,
            "MeanMotion": 1.86231105,
            "RevolutionNumber": "4204"
        },
        {
            "Name": "BEIDOU-3 M16 (C35)",
            "Line1": "1 43647U 18078A   24331.46512727 -.00000078  00000+0  00000+0 0  9999",
            "Line2": "2 43647  54.5900 319.8065 0006784   7.5197 352.4969  1.86232381 41596",
            "SatelliteNumber": "43647",
            "Classification": "U",
            "LaunchYear": "18",
            "LaunchNumber": "078",
            "PieceOfLaunch": "A",
            "EpochYear": "24",
            "EpochDay": 331.46512727,
            "FirstDerivativeMeanMotion": -7.8e-07,
            "SecondDerivativeMeanMotion": "00000+0",
            "BSTAR": "00000+0",
            "SetNumber": "999",
            "Inclination": 54.59,
            "RAAN": 319.8065,
            "Eccentricity": 0.0006784,
            "ArgumentOfPerigee": 7.5197,
            "MeanAnomaly": 352.4969,
            "MeanMotion": 1.86232381,
            "RevolutionNumber": "4159"
        },
        {
            "Name": "BEIDOU-3 M15 (C34)",
            "Line1": "1 43648U 18078B   24331.05731509 -.00000078  00000+0  00000+0 0  9996",
            "Line2": "2 43648  54.5861 319.8228 0003499   3.5606 356.4490  1.86232291 41600",
            "SatelliteNumber": "43648",
            "Classification": "U",
            "LaunchYear": "18",
            "LaunchNumber": "078",
            "PieceOfLaunch": "B",
            "EpochYear": "24",
            "EpochDay": 331.05731509,
            "FirstDerivativeMeanMotion": -7.8e-07,
            "SecondDerivativeMeanMotion": "00000+0",
            "BSTAR": "00000+0",
            "SetNumber": "999",
            "Inclination": 54.5861,
            "RAAN": 319.8228,
            "Eccentricity": 0.0003499,
            "ArgumentOfPerigee": 3.5606,
            "MeanAnomaly": 356.449,
            "MeanMotion": 1.86232291,
            "RevolutionNumber": "4160"
        },
        {
            "Name": "BEIDOU-3 G1 (C59)",
            "Line1": "1 43683U 18085A   24330.89810816 -.00000259  00000+0  00000+0 0  9994",
            "Line2": "2 43683   2.5917 103.8469 0001432  53.1393  11.7049  1.00269796 22360",
            "SatelliteNumber": "43683",
            "Classification": "U",
            "LaunchYear": "18",
            "LaunchNumber": "085",
            "PieceOfLaunch": "A",
            "EpochYear": "24",
            "EpochDay": 330.89810816,
            "FirstDerivativeMeanMotion": -2.59e-06,
            "SecondDerivativeMeanMotion": "00000+0",
            "BSTAR": "00000+0",
            "SetNumber": "999",
            "Inclination": 2.5917,
            "RAAN": 103.8469,
            "Eccentricity": 0.0001432,
            "ArgumentOfPerigee": 53.1393,
            "MeanAnomaly": 11.7049,
            "MeanMotion": 1.00269796,
            "RevolutionNumber": "2236"
        },
        {
            "Name": "BEIDOU-3 M17 (C36)",
            "Line1": "1 43706U 18093A   24330.67310177  .00000046  00000+0  00000+0 0  9993",
            "Line2": "2 43706  54.1967 201.5886 0006911 298.8076  61.2109  1.86228572 40937",
            "SatelliteNumber": "43706",
            "Classification": "U",
            "LaunchYear": "18",
            "LaunchNumber": "093",
            "PieceOfLaunch": "A",
            "EpochYear": "24",
            "EpochDay": 330.67310177,
            "FirstDerivativeMeanMotion": 4.6e-07,
            "SecondDerivativeMeanMotion": "00000+0",
            "BSTAR": "00000+0",
            "SetNumber": "999",
            "Inclination": 54.1967,
            "RAAN": 201.5886,
            "Eccentricity": 0.0006911,
            "ArgumentOfPerigee": 298.8076,
            "MeanAnomaly": 61.2109,
            "MeanMotion": 1.86228572,
            "RevolutionNumber": "4093"
        },
        {
            "Name": "BEIDOU-3 M18 (C37)",
            "Line1": "1 43707U 18093B   24331.07407391  .00000052  00000+0  00000+0 0  9991",
            "Line2": "2 43707  54.1974 201.5667 0006563 338.1970  21.8648  1.86230125 40956",
            "SatelliteNumber": "43707",
            "Classification": "U",
            "LaunchYear": "18",
            "LaunchNumber": "093",
            "PieceOfLaunch": "B",
            "EpochYear": "24",
            "EpochDay": 331.07407391,
            "FirstDerivativeMeanMotion": 5.2e-07,
            "SecondDerivativeMeanMotion": "00000+0",
            "BSTAR": "00000+0",
            "SetNumber": "999",
            "Inclination": 54.1974,
            "RAAN": 201.5667,
            "Eccentricity": 0.0006563,
            "ArgumentOfPerigee": 338.197,
            "MeanAnomaly": 21.8648,
            "MeanMotion": 1.86230125,
            "RevolutionNumber": "4095"
        },
        {
            "Name": "BEIDOU-3 IGSO-1 (C38)",
            "Line1": "1 44204U 19023A   24331.61125786 -.00000231  00000+0  00000+0 0  9993",
            "Line2": "2 44204  57.8821  43.5309 0025197 212.1983 146.7237  1.00253473 20660",
            "SatelliteNumber": "44204",
            "Classification": "U",
            "LaunchYear": "19",
            "LaunchNumber": "023",
            "PieceOfLaunch": "A",
            "EpochYear": "24",
            "EpochDay": 331.61125786,
            "FirstDerivativeMeanMotion": -2.31e-06,
            "SecondDerivativeMeanMotion": "00000+0",
            "BSTAR": "00000+0",
            "SetNumber": "999",
            "Inclination": 57.8821,
            "RAAN": 43.5309,
            "Eccentricity": 0.0025197,
            "ArgumentOfPerigee": 212.1983,
            "MeanAnomaly": 146.7237,
            "MeanMotion": 1.00253473,
            "RevolutionNumber": "2066"
        },
        {
            "Name": "BEIDOU-2 G8 (C01)",
            "Line1": "1 44231U 19027A   24331.75708369 -.00000227  00000+0  00000+0 0  9991",
            "Line2": "2 44231   1.8811  74.7092 0004843 201.0799 207.3714  1.00267366 20389",
            "SatelliteNumber": "44231",
            "Classification": "U",
            "LaunchYear": "19",
            "LaunchNumber": "027",
            "PieceOfLaunch": "A",
            "EpochYear": "24",
            "EpochDay": 331.75708369,
            "FirstDerivativeMeanMotion": -2.27e-06,
            "SecondDerivativeMeanMotion": "00000+0",
            "BSTAR": "00000+0",
            "SetNumber": "999",
            "Inclination": 1.8811,
            "RAAN": 74.7092,
            "Eccentricity": 0.0004843,
            "ArgumentOfPerigee": 201.0799,
            "MeanAnomaly": 207.3714,
            "MeanMotion": 1.00267366,
            "RevolutionNumber": "2038"
        },
        {
            "Name": "BEIDOU-3 IGSO-2 (C39)",
            "Line1": "1 44337U 19035A   24322.83050358 -.00000064  00000+0  00000+0 0  9993",
            "Line2": "2 44337  55.1861 163.9216 0034767 201.0257 107.1426  1.00249229 19887",
            "SatelliteNumber": "44337",
            "Classification": "U",
            "LaunchYear": "19",
            "LaunchNumber": "035",
            "PieceOfLaunch": "A",
            "EpochYear": "24",
            "EpochDay": 322.83050358,
            "FirstDerivativeMeanMotion": -6.4e-07,
            "SecondDerivativeMeanMotion": "00000+0",
            "BSTAR": "00000+0",
            "SetNumber": "999",
            "Inclination": 55.1861,
            "RAAN": 163.9216,
            "Eccentricity": 0.0034767,
            "ArgumentOfPerigee": 201.0257,
            "MeanAnomaly": 107.1426,
            "MeanMotion": 1.00249229,
            "RevolutionNumber": "1988"
        }
    ]
}